NORAD_CAT_ID,OBJECT_NAME,OBJECT_TYPE,EPOCH,MEAN_MOTION,ECCENTRICITY,INCLINATION,RA_OF_ASC_NODE,ARG_OF_PERICENTER,MEAN_ANOMALY,BSTAR,MEAN_MOTION_DOT,MEAN_MOTION_DDOT,TLE_LINE0,TLE_LINE1,TLE_LINE2,SEMIMAJOR_AXIS,PERIOD,APOGEE,PERIGEE,DECAYED
53262.0,STARLINK-4085,PAYLOAD,2024-07-14 19:48:52,15.08863027,0.000125,53.2183,20.4818,85.0218,275.0916,0.00025398,3.759e-05,0.0,0 STARLINK-4085,1 53262U 22086W   24196.82560413  .00003759  00000-0  25398-3 0  9991,2 53262  53.2183  20.4818 0001250  85.0218 275.0916 15.08863027109872,6917.81,95.436,540.54,538.81,0.0
53262.0,STARLINK-4085,PAYLOAD,2024-07-15 05:21:11,15.08854342,0.0001195,53.2188,18.6968,81.6224,278.4903,0.00014336,1.995e-05,0.0,0 STARLINK-4085,1 53262U 22086W   24197.22304984  .00001995  00000-0  14336-3 0  9995,2 53262  53.2188  18.6968 0001195  81.6224 278.4903 15.08854342109939,6917.837,95.437,540.528,538.875,0.0
53262.0,STARLINK-4085,PAYLOAD,2024-07-15 21:15:03,15.08848722,0.0001441,53.2182,15.7231,89.8702,270.2455,0.00011108,1.481e-05,0.0,0 STARLINK-4085,1 53262U 22086W   24197.88545799  .00001481  00000-0  11108-3 0  9992,2 53262  53.2182  15.7231 0001441  89.8702 270.2455 15.08848722110039,6917.854,95.437,540.716,538.722,0.0
53262.0,STARLINK-4085,PAYLOAD,2024-07-16 11:33:31,15.088562,0.000133,53.2177,13.0472,98.6684,261.4459,-0.00016521,-2.917e-05,0.0,0 STARLINK-4085,1 53262U 22086W   24198.48161806 -.00002917  00000-0 -16521-3 0  9993,2 53262  53.2177  13.0472 0001330  98.6684 261.4459 15.08856200110301,6917.831,95.437,540.616,538.776,0.0
53262.0,STARLINK-4085,PAYLOAD,2024-07-16 16:19:40,15.08860432,0.0001386,53.2175,12.1567,93.7908,266.3243,-0.00011756,-2.16e-05,0.0,0 STARLINK-4085,1 53262U 22086W   24198.68033153 -.00002160  00000-0 -11756-3 0  9993,2 53262  53.2175  12.1567 0001386  93.7908 266.3243 15.08860432110330,6917.818,95.436,540.642,538.724,0.0
53262.0,STARLINK-4085,PAYLOAD,2024-07-17 05:02:45,15.08855971,0.0001355,53.2176,9.7824,64.5989,295.5143,-0.00011763,-2.16e-05,0.0,0 STARLINK-4085,1 53262U 22086W   24199.21025054 -.00002160  00000-0 -11763-3 0  9992,2 53262  53.2176   9.7824 0001355  64.5989 295.5143 15.08855971110234,6917.832,95.437,540.634,538.759,0.0
53262.0,STARLINK-4085,PAYLOAD,2024-07-17 11:24:19,15.08831689,0.000193,53.2173,8.5884,83.7055,276.4157,3.5917e-05,2.83e-06,0.0,0 STARLINK-4085,1 53262U 22086W   24199.47522429  .00000283  00000-0  35917-4 0  9998,2 53262  53.2173   8.5884 0001930  83.7055 276.4157 15.08831689110277,6917.906,95.438,541.106,538.436,0.0
53262.0,STARLINK-4085,PAYLOAD,2024-07-17 14:35:05,15.08831821,0.0001718,53.2168,7.9915,92.2453,267.8736,4.1452e-05,3.72e-06,0.0,0 STARLINK-4085,1 53262U 22086W   24199.60770490  .00000372  00000-0  41452-4 0  9996,2 53262  53.2168   7.9915 0001718  92.2453 267.8736 15.08831821110477,6917.905,95.438,540.959,538.582,0.0
53262.0,STARLINK-4085,PAYLOAD,2024-07-17 17:45:51,15.08839033,0.0001593,53.2197,7.3974,98.7909,261.3264,-3.2656e-05,-8.08e-06,0.0,0 STARLINK-4085,1 53262U 22086W   24199.74018311 -.00000808  00000-0 -32656-4 0  9990,2 53262  53.2197   7.3974 0001593  98.7909 261.3264 15.08839033110496,6917.883,95.438,540.85,538.646,0.0
53262.0,STARLINK-4085,PAYLOAD,2024-07-18 14:25:52,15.08838354,0.0001365,53.2199,3.5323,103.1231,256.9914,0.00015293,2.147e-05,0.0,0 STARLINK-4085,1 53262U 22086W   24200.60130074  .00002147  00000-0  15293-3 0  9992,2 53262  53.2199   3.5323 0001365 103.1231 256.9914 15.08838354110622,6917.885,95.438,540.695,538.806,0.0
53262.0,STARLINK-4085,PAYLOAD,2024-07-18 17:36:38,15.08850953,0.000162,53.2199,2.9379,104.2169,255.9003,8.0375e-05,9.92e-06,0.0,0 STARLINK-4085,1 53262U 22086W   24200.73377516  .00000992  00000-0  80375-4 0  9990,2 53262  53.2199   2.9379 0001620 104.2169 255.9003 15.08850953110461,6917.847,95.437,540.833,538.591,0.0
53262.0,STARLINK-4085,PAYLOAD,2024-07-19 11:05:53,15.08837333,0.0001591,53.2189,359.666,101.3957,258.7213,0.00027162,4.037e-05,0.0,0 STARLINK-4085,1 53262U 22086W   24201.46242466  .00004037  00000-0  27162-3 0  9994,2 53262  53.2189 359.6660 0001591 101.3957 258.7213 15.08837333110578,6917.889,95.438,540.854,538.653,0.0
53262.0,STARLINK-4085,PAYLOAD,2024-07-19 14:16:39,15.0884068,0.0001504,53.2176,359.0722,78.7776,281.3385,0.00020649,3e-05,0.0,0 STARLINK-4085,1 53262U 22086W   24201.59490289  .00003000  00000-0  20649-3 0  9998,2 53262  53.2176 359.0722 0001504  78.7776 281.3385 15.08840680110770,6917.878,95.438,540.784,538.703,0.0
53262.0,STARLINK-4085,PAYLOAD,2024-07-19 17:27:25,15.08850219,0.0001468,53.2187,358.48,86.2323,273.8837,0.00029855,4.468e-05,0.0,0 STARLINK-4085,1 53262U 22086W   24201.72737827  .00004468  00000-0  29855-3 0  9992,2 53262  53.2187 358.4800 0001468  86.2323 273.8837 15.08850219110613,6917.849,95.437,540.73,538.699,0.0
53262.0,STARLINK-4085,PAYLOAD,2024-07-20 10:56:40,15.08841318,0.0001433,53.2187,355.2077,85.9701,274.1455,-3.5912e-05,-8.59e-06,0.0,0 STARLINK-4085,1 53262U 22086W   24202.45602154 -.00000859  00000-0 -35912-4 0  9991,2 53262  53.2187 355.2077 0001433  85.9701 274.1455 15.08841318110724,6917.876,95.437,540.733,538.75,0.0
53262.0,STARLINK-4085,PAYLOAD,2024-07-20 14:07:26,15.0884251,0.0001367,53.2189,354.6129,97.6807,262.4341,1.2755e-05,-8.5e-07,0.0,0 STARLINK-4085,1 53262U 22086W   24202.58850107 -.00000085  00000-0  12755-4 0  9998,2 53262  53.2189 354.6129 0001367  97.6807 262.4341 15.08842510110921,6917.873,95.437,540.683,538.792,0.0
53262.0,STARLINK-4085,PAYLOAD,2024-07-20 17:18:12,15.08846727,0.0001295,53.2184,354.0178,94.6228,265.4912,7.2935e-05,8.73e-06,0.0,0 STARLINK-4085,1 53262U 22086W   24202.72097866  .00000873  00000-0  72935-4 0  9999,2 53262  53.2184 354.0178 0001295  94.6228 265.4912 15.08846727110941,6917.86,95.437,540.621,538.829,0.0
53262.0,STARLINK-4085,PAYLOAD,2024-07-21 13:58:13,15.08834851,0.0001959,53.2201,350.1562,100.9285,259.1928,-0.00012382,-2.258e-05,0.0,0 STARLINK-4085,1 53262U 22086W   24203.58210572 -.00002258  00000-0 -12382-3 0  9995,2 53262  53.2201 350.1562 0001959 100.9285 259.1928 15.08834851111073,6917.896,95.438,541.116,538.406,0.0
53262.0,STARLINK-4085,PAYLOAD,2024-07-21 17:09:00,15.08833994,0.0001604,53.2193,349.5608,97.7976,262.3198,-0.00010214,-1.913e-05,0.0,0 STARLINK-4085,1 53262U 22086W   24203.71458769 -.00001913  00000-0 -10214-3 0  9991,2 53262  53.2193 349.5608 0001604  97.7976 262.3198 15.08833994110917,6917.899,95.438,540.873,538.654,0.0
53262.0,STARLINK-4085,PAYLOAD,2024-07-22 09:02:51,15.08835419,0.0001241,53.2178,346.5837,75.4667,284.6462,2.1531e-05,5.5e-07,0.0,0 STARLINK-4085,1 53262U 22086W   24204.37698983  .00000055  00000-0  21531-4 0  9997,2 53262  53.2178 346.5837 0001241  75.4667 284.6462 15.08835419111194,6917.894,95.438,540.618,538.901,0.0
53262.0,STARLINK-4085,PAYLOAD,2024-07-22 18:35:10,15.08842543,0.000121,53.2177,344.8051,68.4469,291.6652,0.00037698,5.717e-05,0.0,0 STARLINK-4085,1 53262U 22086W   24204.77442702  .00005717  00000-0  37698-3 0  9997,2 53262  53.2177 344.8051 0001210  68.4469 291.6652 15.08842543111072,6917.873,95.437,540.575,538.901,0.0
53262.0,STARLINK-4085,PAYLOAD,2024-07-23 15:15:11,15.08843034,0.0002374,53.2165,340.9364,74.4432,285.6823,0.00026903,3.996e-05,0.0,0 STARLINK-4085,1 53262U 22086W   24205.63554949  .00003996  00000-0  26903-3 0  9994,2 53262  53.2165 340.9364 0002374  74.4432 285.6823 15.08843034111385,6917.871,95.437,541.378,538.094,0.0
53262.0,STARLINK-4085,PAYLOAD,2024-07-24 08:44:26,15.08835588,0.0001977,53.2183,337.665,75.7324,284.3888,3.3498e-05,2.45e-06,0.0,0 STARLINK-4085,1 53262U 22086W   24206.36419411  .00000245  00000-0  33498-4 0  9991,2 53262  53.2183 337.6650 0001977  75.7324 284.3888 15.08835588111313,6917.894,95.438,541.127,538.391,0.0
53262.0,STARLINK-4085,PAYLOAD,2024-07-24 18:16:45,15.08838888,0.0002149,53.2145,335.8804,80.6978,279.4257,1.3462e-05,-7.4e-07,0.0,0 STARLINK-4085,1 53262U 22086W   24206.76163490 -.00000074  00000-0  13462-4 0  9998,2 53262  53.2145 335.8804 0002149  80.6978 279.4257 15.08838888111551,6917.884,95.438,541.235,538.262,0.0
53262.0,STARLINK-4085,PAYLOAD,2024-07-25 08:35:13,15.08842737,0.0001818,53.2192,333.2069,75.9566,284.1629,6.3115e-05,7.17e-06,0.0,0 STARLINK-4085,1 53262U 22086W   24207.35778945  .00000717  00000-0  63115-4 0  9994,2 53262  53.2192 333.2069 0001818  75.9566 284.1629 15.08842737111464,6917.872,95.437,540.995,538.479,0.0
53262.0,STARLINK-4085,PAYLOAD,2024-07-25 14:56:45,15.08843014,0.0001412,53.2126,332.0098,94.8334,265.2819,0.00012669,1.729e-05,0.0,0 STARLINK-4085,1 53262U 22086W   24207.62274589  .00001729  00000-0  12669-3 0  9990,2 53262  53.2126 332.0098 0001412  94.8334 265.2819 15.08843014111687,6917.871,95.437,540.713,538.759,0.0
53262.0,STARLINK-4085,PAYLOAD,2024-07-26 16:22:55,15.08844359,0.0001549,53.2156,327.2562,89.0476,271.0693,0.00010942,1.454e-05,0.0,0 STARLINK-4085,1 53262U 22086W   24208.68258370  .00001454  00000-0  10942-3 0  9994,2 53262  53.2156 327.2562 0001549  89.0476 271.0693 15.08844359111662,6917.867,95.437,540.804,538.66,0.0
53262.0,STARLINK-4085,PAYLOAD,2024-07-27 19:24:29,15.08833393,0.000343,53.2162,322.1981,103.2499,256.8876,5.1468e-05,5.3e-06,0.0,0 STARLINK-4085,1 53262U 22086W   24209.80867730  .00000530  00000-0  51468-4 0  9998,2 53262  53.2162 322.1981 0003430 103.2499 256.8876 15.08833393112013,6917.901,95.438,542.138,537.393,0.0
53262.0,STARLINK-4085,PAYLOAD,2024-07-28 00:10:39,15.08845493,0.0003425,53.219,321.3045,86.7646,273.3738,-0.00013285,-2.403e-05,0.0,0 STARLINK-4085,1 53262U 22086W   24210.00739603 -.00002403  00000-0 -13285-3 0  9996,2 53262  53.2190 321.3045 0003425  86.7646 273.3738 15.08845493111866,6917.864,95.437,542.098,537.359,0.0
53262.0,STARLINK-4085,PAYLOAD,2024-07-28 16:04:29,15.08844688,0.0001813,53.2191,318.3385,80.9692,279.1506,0.00022849,3.351e-05,0.0,0 STARLINK-4085,1 53262U 22086W   24210.66978343  .00003351  00000-0  22849-3 0  9991,2 53262  53.2191 318.3385 0001813  80.9692 279.1506 15.08844688111969,6917.866,95.437,540.985,538.477,0.0
